NORAD_CAT_ID,OBJECT_NAME,OBJECT_TYPE,EPOCH,MEAN_MOTION,ECCENTRICITY,INCLINATION,RA_OF_ASC_NODE,ARG_OF_PERICENTER,MEAN_ANOMALY,BSTAR,MEAN_MOTION_DOT,MEAN_MOTION_DDOT,TLE_LINE0,TLE_LINE1,TLE_LINE2,SEMIMAJOR_AXIS,PERIOD,APOGEE,PERIGEE,DECAYED
52580.0,STARLINK-3919,PAYLOAD,2023-04-20 12:23:37,15.08839227,0.0001428,53.2168,186.4939,97.8581,262.2573,-1.0937e-05,-4.62e-06,0.0,0 STARLINK-3919,1 52580U 22051AW  23110.51640366 -.00000462  00000-0 -10937-4 0  9996,2 52580  53.2168 186.4939 0001428  97.8581 262.2573 15.08839227 52234,6917.883,95.438,540.736,538.76,0.0
52580.0,STARLINK-3919,PAYLOAD,2023-04-21 05:52:52,15.08833251,0.0001293,53.2174,183.2242,98.543,261.5709,1.6294e-05,-2.9e-07,0.0,0 STARLINK-3919,1 52580U 22051AW  23111.24504955 -.00000029  00000-0  16294-4 0  9990,2 52580  53.2174 183.2242 0001293  98.5430 261.5709 15.08833251 52418,6917.901,95.438,540.661,538.872,0.0
52580.0,STARLINK-3919,PAYLOAD,2023-04-21 21:46:43,15.08840145,0.0001047,53.215,180.249,86.6436,273.4676,0.00017718,2.533e-05,0.0,0 STARLINK-3919,1 52580U 22051AW  23111.90744947  .00002533  00000-0  17718-3 0  9992,2 52580  53.2150 180.2490 0001047  86.6436 273.4676 15.08840145 52443,6917.88,95.438,540.469,539.021,0.0
52580.0,STARLINK-3919,PAYLOAD,2023-04-22 05:43:39,15.08841725,9.97e-05,53.215,178.7624,83.7153,276.3953,0.00027161,4.038e-05,0.0,0 STARLINK-3919,1 52580U 22051AW  23112.23865007  .00004038  00000-0  27161-3 0  9995,2 52580  53.2150 178.7624 0000997  83.7153 276.3953 15.08841725 52491,6917.875,95.437,540.43,539.05,0.0
52580.0,STARLINK-3919,PAYLOAD,2023-04-22 21:37:30,15.08846611,0.0001125,53.2145,175.7885,79.611,280.5009,0.00024855,3.671e-05,0.0,0 STARLINK-3919,1 52580U 22051AW  23112.90104775  .00003671  00000-0  24855-3 0  9996,2 52580  53.2145 175.7885 0001125  79.6110 280.5009 15.08846611 52669,6917.86,95.437,540.503,538.947,0.0
52580.0,STARLINK-3919,PAYLOAD,2023-04-23 13:31:22,15.08837805,0.0001248,53.2151,172.8161,78.2622,281.851,0.00011807,1.592e-05,0.0,0 STARLINK-3919,1 52580U 22051AW  23113.56345265  .00001592  00000-0  11807-3 0  9993,2 52580  53.2151 172.8161 0001248  78.2622 281.8510 15.08837805 52699,6917.887,95.438,540.615,538.889,0.0
52580.0,STARLINK-3919,PAYLOAD,2023-04-24 03:49:49,15.08870011,0.0001335,53.2145,170.138,86.5936,273.5209,0.00071062,0.00011049,0.0,0 STARLINK-3919,1 52580U 22051AW  23114.15960285  .00011049  00000-0  71062-3 0  9991,2 52580  53.2145 170.1380 0001335  86.5936 273.5209 15.08870011 52850,6917.789,95.436,540.577,538.73,0.0
52580.0,STARLINK-3919,PAYLOAD,2023-04-25 11:37:33,15.08821963,0.0001334,53.2151,164.1898,57.1666,302.9454,-0.00033525,-5.617e-05,0.0,0 STARLINK-3919,1 52580U 22051AW  23115.48441323 -.00005617  00000-0 -33525-3 0  9993,2 52580  53.2151 164.1898 0001334  57.1666 302.9454 15.08821963 53051,6917.936,95.439,540.723,538.878,0.0
52580.0,STARLINK-3919,PAYLOAD,2023-04-25 13:12:56,15.08824907,0.0001299,53.2151,163.8925,51.0361,309.0746,-0.000186,-3.246e-05,0.0,0 STARLINK-3919,1 52580U 22051AW  23115.55065606 -.00003246  00000-0 -18600-3 0  9990,2 52580  53.2151 163.8925 0001299  51.0361 309.0746 15.08824907 52998,6917.927,95.439,540.69,538.893,0.0
52580.0,STARLINK-3919,PAYLOAD,2023-04-26 13:03:42,15.08864588,0.0001225,53.2153,159.4327,83.2968,276.8163,-0.0012708,-0.00020469,0.0,0 STARLINK-3919,1 52580U 22051AW  23116.54423887 -.00020469  00000-0 -12708-2 0  9997,2 52580  53.2153 159.4327 0001225  83.2968 276.8163 15.08864588 53147,6917.805,95.436,540.518,538.823,0.0
52580.0,STARLINK-3919,PAYLOAD,2023-04-26 19:25:17,15.08821147,0.0001445,53.2153,158.2441,60.7906,299.3231,0.00032586,4.899e-05,0.0,0 STARLINK-3919,1 52580U 22051AW  23116.80923095  .00004899  00000-0  32586-3 0  9996,2 52580  53.2153 158.2441 0001445  60.7906 299.3231 15.08821147 53181,6917.938,95.439,540.803,538.803,0.0
52580.0,STARLINK-3919,PAYLOAD,2023-04-27 03:22:13,15.08828688,0.000142,53.2151,156.7569,58.8014,301.3117,0.00036781,5.569e-05,0.0,0 STARLINK-3919,1 52580U 22051AW  23117.14043149  .00005569  00000-0  36781-3 0  9993,2 52580  53.2151 156.7569 0001420  58.8014 301.3117 15.08828688 53302,6917.915,95.438,540.762,538.798,0.0
52580.0,STARLINK-3919,PAYLOAD,2023-04-27 12:54:31,15.08845665,0.0001504,53.2154,154.9728,59.5102,300.6039,0.00056813,8.767e-05,0.0,0 STARLINK-3919,1 52580U 22051AW  23117.53786990  .00008767  00000-0  56813-3 0  9995,2 52580  53.2154 154.9728 0001504  59.5102 300.6039 15.08845665 53298,6917.863,95.437,540.769,538.688,0.0
52580.0,STARLINK-3919,PAYLOAD,2023-04-28 11:09:54,15.08871297,0.0001505,53.2154,150.8095,60.9894,299.1249,0.00066528,0.00010325,0.0,0 STARLINK-3919,1 52580U 22051AW  23118.46521509  .00010325  00000-0  66528-3 0  9998,2 52580  53.2154 150.8095 0001505  60.9894 299.1249 15.08871297 53504,6917.785,95.436,540.691,538.609,0.0
52580.0,STARLINK-3919,PAYLOAD,2023-04-29 01:28:22,15.08857175,0.0002113,53.2147,148.1338,63.0608,297.06,0.00022903,3.36e-05,0.0,0 STARLINK-3919,1 52580U 22051AW  23119.06137402  .00003360  00000-0  22903-3 0  9990,2 52580  53.2147 148.1338 0002113  63.0608 297.0600 15.08857175 53595,6917.828,95.436,541.155,538.231,0.0
52580.0,STARLINK-3919,PAYLOAD,2023-04-29 09:25:18,15.08848942,0.0001351,53.2153,146.6442,99.1844,260.9301,-5.3955e-05,-1.147e-05,0.0,0 STARLINK-3919,1 52580U 22051AW  23119.39257070 -.00001147  00000-0 -53955-4 0  9995,2 52580  53.2153 146.6442 0001351  99.1844 260.9301 15.08848942 53573,6917.853,95.437,540.653,538.783,0.0
52580.0,STARLINK-3919,PAYLOAD,2023-04-30 10:51:28,15.08844905,0.0001579,53.2155,141.8886,72.6133,287.5031,4.1134e-05,3.67e-06,0.0,0 STARLINK-3919,1 52580U 22051AW  23120.45241303  .00000367  00000-0  41134-4 0  9993,2 52580  53.2155 141.8886 0001579  72.6133 287.5031 15.08844905 53809,6917.865,95.437,540.823,538.638,0.0
52580.0,STARLINK-3919,PAYLOAD,2023-05-01 05:56:06,15.08838692,0.0001585,53.2152,138.3198,70.4743,289.642,8.5922e-05,1.08e-05,0.0,0 STARLINK-3919,1 52580U 22051AW  23121.24729768  .00001080  00000-0  85922-4 0  9993,2 52580  53.2152 138.3198 0001585  70.4743 289.6420 15.08838692 53927,6917.884,95.438,540.846,538.653,0.0
52580.0,STARLINK-3919,PAYLOAD,2023-05-01 12:17:38,15.08840872,0.000158,53.2163,137.1302,72.1481,287.9683,8.5244e-05,1.069e-05,0.0,0 STARLINK-3919,1 52580U 22051AW  23121.51225663  .00001069  00000-0  85244-4 0  9992,2 52580  53.2163 137.1302 0001580  72.1481 287.9683 15.08840872 53897,6917.878,95.437,540.836,538.65,0.0
52580.0,STARLINK-3919,PAYLOAD,2023-05-02 12:08:25,15.08847241,0.0001486,53.2162,132.6695,78.3632,281.7527,0.00010504,1.384e-05,0.0,0 STARLINK-3919,1 52580U 22051AW  23122.50585006  .00001384  00000-0  10504-3 0  9998,2 52580  53.2162 132.6695 0001486  78.3632 281.7527 15.08847241 54114,6917.858,95.437,540.751,538.695,0.0
52580.0,STARLINK-3919,PAYLOAD,2023-05-03 05:37:40,15.08836895,0.000148,53.2166,129.3979,87.3504,272.7658,5.4182e-05,5.74e-06,0.0,0 STARLINK-3919,1 52580U 22051AW  23123.23449792  .00000574  00000-0  54182-4 0  9991,2 52580  53.2166 129.3979 0001480  87.3504 272.7658 15.08836895 54228,6917.89,95.438,540.779,538.731,0.0
52580.0,STARLINK-3919,PAYLOAD,2023-05-03 10:23:49,15.08838291,0.0001508,53.2166,128.5064,83.2113,276.905,5.5452e-05,5.95e-06,0.0,0 STARLINK-3919,1 52580U 22051AW  23123.43321719  .00000595  00000-0  55452-4 0  9995,2 52580  53.2166 128.5064 0001508  83.2113 276.9050 15.08838291 54185,6917.886,95.438,540.794,538.707,0.0
52580.0,STARLINK-3919,PAYLOAD,2023-05-04 10:14:37,15.0883941,0.0001514,53.2167,124.0465,81.6888,278.4276,1.1015e-05,-1.13e-06,0.0,0 STARLINK-3919,1 52580U 22051AW  23124.42681820 -.00000113  00000-0  11015-4 0  9991,2 52580  53.2167 124.0465 0001514  81.6888 278.4276 15.08839410 54406,6917.882,95.438,540.795,538.7,0.0
52580.0,STARLINK-3919,PAYLOAD,2023-05-05 16:26:57,15.08834795,0.000144,53.2163,118.3966,81.3531,278.7624,3.6091e-05,2.86e-06,0.0,0 STARLINK-3919,1 52580U 22051AW  23125.68538319  .00000286  00000-0  36091-4 0  9995,2 52580  53.2163 118.3966 0001440  81.3531 278.7624 15.08834795 54528,6917.896,95.438,540.757,538.765,0.0
52580.0,STARLINK-3919,PAYLOAD,2023-05-05 22:48:29,15.08833917,0.000144,53.2163,117.2071,81.8348,278.2808,5.5613e-05,5.97e-06,0.0,0 STARLINK-3919,1 52580U 22051AW  23125.95034446  .00000597  00000-0  55613-4 0  9993,2 52580  53.2163 117.2071 0001440  81.8348 278.2808 15.08833917 54630,6917.899,95.438,540.76,538.768,0.0
52580.0,STARLINK-3919,PAYLOAD,2023-05-06 08:20:48,15.08839192,0.000145,53.2165,115.4229,82.1717,277.944,6.6316e-05,7.68e-06,0.0,0 STARLINK-3919,1 52580U 22051AW  23126.34778282  .00000768  00000-0  66316-4 0  9992,2 52580  53.2165 115.4229 0001450  82.1717 277.9440 15.08839192 54620,6917.883,95.438,540.751,538.745,0.0
52580.0,STARLINK-3919,PAYLOAD,2023-05-06 22:39:16,15.08844602,0.0001426,53.2165,112.7463,82.8392,277.2762,8.6937e-05,1.096e-05,0.0,0 STARLINK-3919,1 52580U 22051AW  23126.94393904  .00001096  00000-0  86937-4 0  9998,2 52580  53.2165 112.7463 0001426  82.8392 277.2762 15.08844602 54788,6917.866,95.437,540.718,538.745,0.0
52580.0,STARLINK-3919,PAYLOAD,2023-05-07 06:36:11,15.08850136,0.0001432,53.2165,111.2595,84.6423,275.4732,0.00013026,1.786e-05,0.0,0 STARLINK-3919,1 52580U 22051AW  23127.27513373  .00001786  00000-0  13026-3 0  9993,2 52580  53.2165 111.2595 0001432  84.6423 275.4732 15.08850136 54764,6917.849,95.437,540.705,538.724,0.0
52580.0,STARLINK-3919,PAYLOAD,2023-05-07 16:08:30,15.08843341,0.0001411,53.2165,109.4754,83.8674,276.2479,7.704e-05,9.38e-06,0.0,0 STARLINK-3919,1 52580U 22051AW  23127.67257865  .00000938  00000-0  77040-4 0  9993,2 52580  53.2165 109.4754 0001411  83.8674 276.2479 15.08843341 54820,6917.87,95.437,540.711,538.759,0.0
52580.0,STARLINK-3919,PAYLOAD,2023-05-08 04:51:36,15.0883671,0.0001341,53.2167,107.0956,95.486,264.6285,4.5632e-05,4.38e-06,0.0,0 STARLINK-3919,1 52580U 22051AW  23128.20250416  .00000438  00000-0  45632-4 0  9995,2 52580  53.2167 107.0956 0001341  95.4860 264.6285 15.08836710 54972,6917.89,95.438,540.683,538.828,0.0
